ONEWEB-0113             
1 48050U 21025J   24073.50867815  .00000344  00000+0  90758-3 0  9995
2 48050  87.8946 124.5872 0002074  93.9654 266.1712 13.13468056145191
ONEWEB-0112             
1 48051U 21025K   24074.18157892 -.00000020  00000+0 -90466-4 0  9998
2 48051  87.8936 124.4579 0002087  99.2257 260.9108 13.13469651145302
ONEWEB-0156             
1 48052U 21025L   24074.19110265  .00000214  00000+0  54985-3 0  9991
2 48052  87.8941 124.4496 0002067  99.9075 260.2287 13.13468936145283
ONEWEB-0161             
1 48053U 21025M   24074.39265683 -.00000291  00000+0 -83078-3 0  9991
2 48053  87.8942 124.4141 0001878 104.9624 255.1713 13.13469047145245
ONEWEB-0158             
1 48054U 21025N   24073.51662303  .00000301  00000+0  78962-3 0  9991
2 48054  87.8942 124.5817 0002125  95.9390 264.1981 13.13469222145244
ONEWEB-0157             
1 48055U 21025P   24074.14983899 -.00000052  00000+0 -17780-3 0  9994
2 48055  87.8942 124.4720 0002103 105.6428 254.4933 13.13469231145276
ONEWEB-0162             
1 48056U 21025Q   24074.49422963  .00000141  00000+0  35054-3 0  9994
2 48056  87.8938 124.4005 0002098  99.9630 260.1736 13.13470353145262
ONEWEB-0155             
1 48057U 21025R   24074.51486365  .00000316  00000+0  83002-3 0  9994
2 48057  87.8939 124.4052 0001962  98.6957 261.4395 13.13468423145432
ONEWEB-0149             
1 48058U 21025S   24074.38313052 -.00000658  00000+0 -18362-2 0  9999
2 48058  87.8935 124.4283 0002488 100.6270 259.5139 13.13466108145220
ONEWEB-0148             
1 48059U 21025T   24074.50057524  .00000221  00000+0  57013-3 0  9994
2 48059  87.8943 124.4115 0002489 110.8655 249.2741 13.13468530145355
ONEWEB-0160             
1 48060U 21025U   24074.51645155  .00000318  00000+0  83707-3 0  9996
2 48060  87.8943 124.4042 0002451  76.3180 283.8222 13.13468946145308
ONEWEB-0163             
1 48061U 21025V   24073.51185664  .00000310  00000+0  81359-3 0  9993
2 48061  87.8940 124.5992 0001891 108.3477 251.7858 13.13469183145294
ONEWEB-0159             
1 48062U 21025W   24074.41487617  .00000045  00000+0  89577-4 0  9993
2 48062  87.8938 124.4039 0002089 105.7133 254.4226 13.13470243145336
ONEWEB-0164             
1 48063U 21025X   24074.16888005 -.00000199  00000+0 -57973-3 0  9998
2 48063  87.8935 124.4621 0001859  96.0628 264.0713 13.13469514145298
ONEWEB-0167             
1 48064U 21025Y   24073.51264426  .00000313  00000+0  82187-3 0  9993
2 48064  87.8942 124.6040 0001949 105.4747 254.6597 13.13467940145185
ONEWEB-0166             
1 48065U 21025Z   24074.21967388  .00000139  00000+0  34662-3 0  9990
2 48065  87.8939 124.4503 0002236 102.9622 257.1757 13.13468665145358
ONEWEB-0151             
1 48066U 21025AA  24074.22125855  .00000074  00000+0  16768-3 0  9992
2 48066  87.8940 124.4610 0001842  95.7999 264.3340 13.13469502145302
ONEWEB-0170             
1 48067U 21025AB  24073.84830203 -.00000225  00000+0 -64987-3 0  9996
2 48067  87.8942 124.5365 0001768  79.5028 280.6300 13.13468537145206
ONEWEB-0168             
1 48068U 21025AC  24074.36727117  .00000267  00000+0  69603-3 0  9998
2 48068  87.8945 124.4006 0002053 102.1929 257.9430 13.13470783145287
ONEWEB-0173             
1 48069U 21025AD  24074.51166681 -.00015022  00000+0 -41192-1 0  9997
2 48069  87.8944 124.3824 0000997 107.7328 252.3910 13.13543977145540
ONEWEB-0171             
1 48070U 21025AE  24073.40551657 -.00000194  00000+0 -56598-3 0  9999
2 48070  87.8944 124.6374 0001874  99.1626 260.9715 13.13469494145218
ONEWEB-0172             
1 48071U 21025AF  24073.84195284 -.00000069  00000+0 -22271-3 0  9990
2 48071  87.8946 124.5173 0001774 100.4573 259.6756 13.13469189146169
ONEWEB-0174             
1 48072U 21025AG  24074.20539255  .00000432  00000+0  11493-2 0  9997
2 48072  87.8945 124.4592 0002167 102.4287 257.7084 13.13469828145537
ONEWEB-0175             
1 48073U 21025AH  24073.85306052 -.00000250  00000+0 -72048-3 0  9999
2 48073  87.8937 124.5233 0001670  90.0337 270.0984 13.13469389145144
ONEWEB-0177             
1 48074U 21025AJ  24074.39899705 -.00000255  00000+0 -73248-3 0  9990
2 48074  87.8936 124.4211 0001970 112.7000 247.4338 13.13469473145405
ONEWEB-0178             
1 48075U 21025AK  24073.88336075  .00000166  00000+0  41901-3 0  9990
2 48075  87.8945 124.5350 0001889 106.8589 253.2748 13.13470594145389
ONEWEB-0108             
1 48076U 21025AL  24074.14825389 -.00000016  00000+0 -78026-4 0  9997
2 48076  87.8939 124.4692 0002264  96.1298 264.0089 13.13469341145350
ONEWEB-0169             
1 48077U 21025AM  24074.17999100 -.00000062  00000+0 -20340-3 0  9990
2 48077  87.8940 124.4701 0002258  96.6479 263.4907 13.13469588145246
ONEWEB-0176             
1 48210U 21031A   24074.51892200  .00000055  00000+0  11321-3 0  9996
2 48210  87.8896  93.8227 0001918  91.2027 268.9323 13.14502067141260
ONEWEB-0184             
1 48211U 21031B   24073.95912763  .00000230  00000+0  58565-3 0  9997
2 48211  87.8891  93.9215 0001082  65.8269 294.2974 13.14501175139878
ONEWEB-0179             
1 48212U 21031C   24074.46183038 -.00000205  00000+0 -58781-3 0  9994
2 48212  87.8896  93.8203 0001929  96.3767 263.7582 13.14501995139980
ONEWEB-0180             
1 48213U 21031D   24074.11454882  .00000258  00000+0  66065-3 0  9995
2 48213  87.8892  93.8904 0001854 100.1633 259.9706 13.14503059139829
ONEWEB-0218             
1 48214U 21031E   24074.51732381  .00000103  00000+0  24325-3 0  9995
2 48214  87.8894  93.8120 0000789  85.2182 274.9037 13.14500653140036
ONEWEB-0209             
1 48215U 21031F   24073.74504428  .00000183  00000+0  45917-3 0  9997
2 48215  87.8897  93.9980 0001951  98.0165 262.1186 13.14501394139934
ONEWEB-0198             
1 48216U 21031G   24074.10978064  .00000139  00000+0  33988-3 0  9996
2 48216  87.8893  93.9306 0001488  99.0206 261.1092 13.14501064140071
ONEWEB-0189             
1 48217U 21031H   24073.81799860  .00000209  00000+0  52909-3 0  9991
2 48217  87.8894  93.9650 0001439 101.4887 258.6404 13.14501159139794
ONEWEB-0196             
1 48218U 21031J   24074.48085773  .00000010  00000+0 -80378-5 0  9991
2 48218  87.8895  93.8341 0001799  91.2096 268.9240 13.14501916139871
ONEWEB-0183             
1 48219U 21031K   24074.45548834 -.00000160  00000+0 -46577-3 0  9999
2 48219  87.8897  93.8567 0001948  95.7276 264.4076 13.14502241139970
ONEWEB-0185             
1 48220U 21031L   24074.48164885  .00000044  00000+0  84352-4 0  9997
2 48220  87.8894  93.8246 0001950  99.2597 260.8753 13.14501622139908
ONEWEB-0187             
1 48221U 21031M   24073.76645653 -.00000226  00000+0 -64429-3 0  9991
2 48221  87.8898  93.9989 0002002  97.5406 262.5951 13.14501242139825
ONEWEB-0192             
1 48222U 21031N   24074.12723084  .00000165  00000+0  40981-3 0  9995
2 48222  87.8895  93.9239 0001740  92.8214 267.3115 13.14501645139792
ONEWEB-0219             
1 48223U 21031P   24074.48719500  .00000139  00000+0  33922-3 0  9991
2 48223  87.8894  93.8264 0001899  99.5715 260.5629 13.14502293140049
ONEWEB-0202             
1 48224U 21031Q   24074.46817247 -.00000158  00000+0 -45990-3 0  9998
2 48224  87.8894  93.8505 0001055 100.6684 259.4565 13.14502395140028
ONEWEB-0204             
1 48225U 21031R   24073.81720045  .00000175  00000+0  43879-3 0  9997
2 48225  87.8894  93.9930 0002372  94.4526 265.6875 13.14500632139821
ONEWEB-0205             
1 48226U 21031S   24074.09709757 -.00000044  00000+0 -15378-3 0  9996
2 48226  87.8894  93.9079 0001884 100.1119 260.0223 13.14501707139882
ONEWEB-0206             
1 48227U 21031T   24073.76566354 -.00000188  00000+0 -54050-3 0  9993
2 48227  87.8895  93.9660 0002022 100.0727 260.0631 13.14501314139785
ONEWEB-0182             
1 48228U 21031U   24074.52209564 -.00000005  00000+0 -48114-4 0  9999
2 48228  87.8896  93.8380 0002129  92.8062 267.3311 13.14502084140101
ONEWEB-0186             
1 48229U 21031V   24074.07647615 -.00000177  00000+0 -51122-3 0  9995
2 48229  87.8896  93.8915 0001816  93.2033 266.9305 13.14501048139993
ONEWEB-0181             
1 48230U 21031W   24073.74981184 -.00000873  00000+0 -23885-2 0  9999
2 48230  87.8897  94.0259 0001467  94.7756 265.3541 13.14507971139794
ONEWEB-0188             
1 48231U 21031X   24073.48339531  .00000003  00000+0 -27495-4 0  9991
2 48231  87.8893  94.0758 0001947  94.9787 265.1565 13.14501295139667
ONEWEB-0220             
1 48232U 21031Y   24074.51257779  .00000175  00000+0  43783-3 0  9996
2 48232  87.8888  93.8404 0001927 104.7018 255.4326 13.14502322140067
ONEWEB-0165             
1 48233U 21031Z   24074.46500234 -.00000232  00000+0 -66131-3 0  9996
2 48233  87.8893  93.8600 0001772  97.9309 262.2022 13.14501948140013
ONEWEB-0199             
1 48234U 21031AA  24073.76408437 -.00000134  00000+0 -39523-3 0  9997
2 48234  87.8896  93.9714 0001895  96.0906 264.0440 13.14502605139825
ONEWEB-0203             
1 48235U 21031AB  24074.51574843  .00000125  00000+0  30381-3 0  9998
2 48235  87.8894  93.8223 0001707  76.3797 283.7522 13.14501524139939
ONEWEB-0197             
1 48236U 21031AC  24073.95833857  .00000216  00000+0  54778-3 0  9996
2 48236  87.8896  93.9412 0002333  94.5111 265.6285 13.14501735139772
ONEWEB-0194             
1 48237U 21031AD  24074.46975179 -.00000162  00000+0 -47285-3 0  9995
2 48237  87.8898  93.8313 0001969  83.4694 276.6660 13.14500900140012
ONEWEB-0193             
1 48238U 21031AE  24074.10502713  .00000094  00000+0  21770-3 0  9990
2 48238  87.8896  93.9124 0001748  91.9592 268.1738 13.14501668139919
ONEWEB-0191             
1 48239U 21031AF  24073.50717959  .00000250  00000+0  63859-3 0  9992
2 48239  87.8893  94.0184 0001846  91.3830 268.7511 13.14500954139690
ONEWEB-0195             
1 48240U 21031AG  24074.47371902 -.00000116  00000+0 -34670-3 0  9997
2 48240  87.8891  93.8246 0001541 102.3093 257.8209 13.14501492139806
